OBJECT_NAME,OBJECT_ID,EPOCH,MEAN_MOTION,ECCENTRICITY,INCLINATION,RA_OF_ASC_NODE,ARG_OF_PERICENTER,MEAN_ANOMALY,EPHEMERIS_TYPE,CLASSIFICATION_TYPE,NORAD_CAT_ID,ELEMENT_SET_NO,REV_AT_EPOCH,BSTAR,MEAN_MOTION_DOT,MEAN_MOTION_DDOT
GSAT0216 (GALILEO 20),2017-079B,2026-07-23T02:06:52.354944,1.70474558,.00049735,55.0662,220.5182,278.6022,81.3894,0,U,43056,999,5361,0,.74E-6,0
GSAT0217 (GALILEO 21),2017-079C,2026-07-20T23:06:06.568992,1.70474474,.00042597,55.0652,220.5745,292.9460,67.0499,0,U,43057,999,5356,0,.62E-6,0
GSAT0218 (GALILEO 22),2017-079D,2026-07-22T08:32:23.261856,1.70474503,.00054288,55.0649,220.5336,275.3453,84.6382,0,U,43058,999,5361,0,.71E-6,0
BEIDOU-3 M7 (C27),2018-003A,2026-07-21T04:17:51.196992,1.86228037,.00042553,54.2951,301.1285,100.7931,259.2886,0,U,43107,999,5798,0,-.101E-5,0
BEIDOU-3 M8 (C28),2018-003B,2026-07-23T06:30:24.152832,1.86230960,.00031889,54.2861,301.0369,256.7854,103.2138,0,U,43108,999,5803,0,-.95E-6,0
BEIDOU-3 M4 (C22),2018-018A,2026-07-21T00:42:34.775424,1.86231251,.00071447,56.6812,62.0321,31.4150,328.6897,0,U,43207,999,5737,0,-.8E-6,0
BEIDOU-3 M3 (C21),2018-018B,2026-07-21T15:11:33.569952,1.86231119,.00072012,56.6811,62.0163,348.0427,12.0023,0,U,43208,999,5738,0,-.79E-6,0
BEIDOU-3 M9 (C29),2018-029A,2026-07-20T18:39:06.446016,1.86228484,.00012157,54.1608,298.7724,191.8898,168.1446,0,U,43245,999,5652,0,-.98E-6,0
BEIDOU-3 M10 (C30),2018-029B,2026-07-22T20:37:12.370080,1.86229181,.00031604,54.1570,298.7261,36.5645,323.4944,0,U,43246,999,5654,0,-.93E-6,0
IRNSS-1I,2018-035A,2026-07-21T21:28:12.531936,1.00274701,.00184053,28.8336,73.6540,179.0574,64.0489,0,U,43286,999,3042,0,.62E-6,0
COSMOS 2527 (756),2018-053A,2026-07-20T09:39:19.852704,2.13101992,.00063441,65.5961,72.7996,227.3843,132.6293,0,U,43508,999,6298,0,-.49E-6,0
BEIDOU-2 IGSO-7 (C16),2018-057A,2026-07-16T19:52:42.225600,1.00242392,.01049148,55.1987,162.7987,237.9691,299.1450,0,U,43539,999,2942,0,-.84E-6,0
GSAT0221 (GALILEO 25),2018-060A,2026-07-22T20:19:02.967168,1.70476353,.00027995,57.1563,340.8185,280.4719,79.4910,0,U,43564,999,4977,0,-.106E-5,0
GSAT0222 (GALILEO 26),2018-060B,2026-07-21T21:26:04.045632,1.70476084,.00030361,57.1601,340.8479,234.2214,125.7449,0,U,43565,999,4980,0,-.107E-5,0
GSAT0219 (GALILEO 23),2018-060C,2026-07-23T06:53:26.628000,1.70476344,.00019209,57.1589,340.8118,290.7871,69.1867,0,U,43566,999,4980,0,-.106E-5,0
GSAT0220 (GALILEO 24),2018-060D,2026-07-22T22:07:01.920864,1.70476329,.00021028,57.1584,340.8214,282.6817,77.2892,0,U,43567,999,4978,0,-.106E-5,0
BEIDOU-3 M5 (C23),2018-062A,2026-07-23T01:59:36.551616,1.86228836,.00055793,54.0866,181.0835,295.0912,64.8332,0,U,43581,999,5430,0,.72E-6,0
BEIDOU-3 M6 (C24),2018-062B,2026-07-22T22:43:14.281248,1.86228094,.00054204,54.0863,181.0774,11.5674,348.4274,0,U,43582,999,5430,0,.73E-6,0
BEIDOU-3 M12 (C26),2018-067A,2026-07-22T08:21:23.425056,1.86227647,.00080567,54.1814,179.8480,30.0982,329.9290,0,U,43602,999,5377,0,.75E-6,0
BEIDOU-3 M11 (C25),2018-067B,2026-07-23T00:29:14.618112,1.86227171,.00047478,54.1790,179.7886,13.8554,346.1384,0,U,43603,999,5381,0,.71E-6,0
BEIDOU-3 M13 (C32),2018-072A,2026-07-22T23:23:54.719232,1.86231140,.00058986,56.6564,61.4788,334.7439,25.2913,0,U,43622,999,5332,0,-.74E-6,0
BEIDOU-3 M14 (C33),2018-072B,2026-07-22T20:10:07.128192,1.86231202,.00053618,56.6582,61.4777,12.6892,347.3880,0,U,43623,999,5331,0,-.75E-6,0
BEIDOU-3 M16 (C35),2018-078A,2026-07-20T20:20:15.467136,1.86232384,.00065166,54.0571,298.8050,39.3061,320.7783,0,U,43647,999,5278,0,-.98E-6,0
BEIDOU-3 M15 (C34),2018-078B,2026-07-23T02:59:12.534432,1.86232544,.00033351,54.0507,298.7251,56.6715,303.3981,0,U,43648,999,5284,0,-.92E-6,0
BEIDOU-3 G1 (C59),2018-085A,2026-07-23T05:11:30.079968,1.00273056,.00083578,2.9576,96.3993,357.4084,85.0172,0,U,43683,999,2842,0,-.107E-5,0
COSMOS 2529 (757),2018-086A,2026-07-20T11:57:49.657824,2.13101999,.00119769,64.2975,191.4696,256.3144,103.5547,0,U,43687,999,5999,0,.85E-6,0
BEIDOU-3 M17 (C36),2018-093A,2026-07-23T06:48:46.876896,1.86228519,.00099748,54.1702,181.0718,295.3478,62.8213,0,U,43706,999,5220,0,.71E-6,0
BEIDOU-3 M18 (C37),2018-093B,2026-07-21T00:03:23.021856,1.86226686,.00081178,54.1710,181.1414,324.4293,35.4967,0,U,43707,999,5216,0,.78E-6,0
GPS BIII-1  (PRN 04),2018-109A,2026-07-21T17:27:19.933056,2.00563321,.00388038,55.7026,90.8235,197.0340,26.2979,0,U,43873,999,5576,0,-.63E-6,0
BEIDOU-3 IGSO-1 (C38),2019-023A,2026-07-22T10:37:38.665632,1.00281841,.00261943,58.7457,37.2857,223.4912,318.1363,0,U,44204,999,756,0,-.208E-5,0
BEIDOU-2 G8 (C01),2019-027A,2026-07-23T05:07:00.511104,1.00270132,.00095575,1.7473,74.5091,284.3388,163.3574,0,U,44231,999,2644,0,-.245E-5,0
